{"spkid": "50321516", "covariance": {"data": [["2.276654857723105E-13", "-3.433967352044508E-13", "-3.246741663776299E-11", "-3.180693476235265E-11", "-2.397828330494537E-11", "9.826988029537503E-12"], ["-3.433967352044508E-13", "5.179599138395648E-13", "4.89854485462729E-11", "4.800568838691205E-11", "3.614619813378175E-11", "-1.483037665835532E-11"], ["-3.246741663776299E-11", "4.89854485462729E-11", "4.963417403578078E-9", "5.061527871036895E-9", "3.119806440859791E-9", "-1.554259237420109E-9"], ["-3.180693476235265E-11", "4.800568838691205E-11", "5.061527871036895E-9", "1.250195173454913E-8", "-4.3573451891443E-9", "-2.463877410449766E-9"], ["-2.397828330494537E-11", "3.614619813378175E-11", "3.119806440859791E-9", "-4.3573451891443E-9", "1.004034874298074E-8", "-4.430802212434288E-11"], ["9.826988029537503E-12", "-1.483037665835532E-11", "-1.554259237420109E-9", "-2.463877410449766E-9", "-4.430802212434288E-11", "6.13494677924224E-10"]], "elements": [{"label": "e", "name": "e", "sigma": 4.77143045398663e-07, "units": null, "title": "eccentricity", "value": ".4539102466145375"}, {"label": "q", "name": "q", "sigma": 7.1969431972162e-07, "value": ".8245690536989057", "title": "perihelion distance", "units": "au"}, {"label": "tp", "value": "2457760.911677160422", "title": "time of perihelion passage", "units": "TDB", "sigma": 7.04515252040584e-05, "name": "tp"}, {"label": "node", "name": "om", "sigma": 0.000111812126956557, "value": "148.8669116690061", "title": "longitude of the ascending node", "units": "deg"}, {"name": "w", "sigma": 0.000100201540621793, "title": "argument of perihelion", "value": "253.0795109986741", "units": "deg", "label": "peri"}, {"units": "deg", "value": "3.794360613955464", "title": "inclination", "sigma": 2.47688247182668e-05, "name": "i", "label": "i"}], "labels": ["e", "q", "tp", "node", "peri", "i"], "epoch": "2457584.5"}, "elements": [{"value": ".4538062509628909", "title": "eccentricity", "units": null, "sigma": "4.7662E-7", "name": "e", "label": "e"}, {"name": "a", "sigma": "5.2064E-9", "units": "au", "value": "1.510255261728897", "title": "semi-major axis", "label": "a"}, {"title": "perihelion distance", "value": ".8248919834067265", "units": "au", "sigma": "7.1708E-7", "name": "q", "label": "q"}, {"label": "i", "name": "i", "sigma": "2.475E-5", "units": "deg", "title": "inclination; angle with respect to x-y ecliptic plane", "value": "3.799130408560087"}, {"label": "node", "title": "longitude of the ascending node", "value": "148.6975918731734", "units": "deg", "name": "om", "sigma": ".00011121"}, {"name": "w", "sigma": ".00010026", "units": "deg", "value": "253.2698604523794", "title": "argument of perihelion", "label": "peri"}, {"name": "ma", "sigma": "3.0677E-5", "units": "deg", "title": "mean anomaly", "value": "26.65462355760923", "label": "M"}, {"label": "tp", "units": "TDB", "value": "2461150.306900400943", "title": "time of perihelion passage", "sigma": "5.8004E-5", "name": "tp"}, {"sigma": "3.5055E-6", "name": "per", "title": "sidereal orbital period", "value": "677.913001345023", "units": "d", "label": "period"}, {"label": "n", "name": "n", "sigma": "2.746E-9", "units": "deg/d", "title": "mean motion", "value": ".5310415927792163"}, {"units": "au", "title": "aphelion distance", "value": "2.195618540051067", "name": "ad", "sigma": "7.5691E-9", "label": "Q"}], "epoch": "2461200.5"}